{"type": "FeatureCollection", "features": [ {"type": "Feature", "properties": {"norad_id": 54234, "name": "NOAA 21 (JPSS-2)", "group": "weather", "lat": 69.13165477587991, "lon": 132.94702660747035, "alt_km": 820.0538894670062, "timestamp": "2025-12-18T21:31:50.623405+00:00", "meta": {"OBJECT_NAME": "NOAA 21 (JPSS-2)", "OBJECT_ID": "2022-150A", "EPOCH": "2025-12-18T05:47:39.837984", "MEAN_MOTION": 14.19525773, "ECCENTRICITY": 0.00019879, "INCLINATION": 98.7468, "RA_OF_ASC_NODE": 288.4812, "ARG_OF_PERICENTER": 27.296, "MEAN_ANOMALY": 332.832, "EPHEMERIS_TYPE": 0, "CLASSIFICATION_TYPE": "U", "NORAD_CAT_ID": 54234, "ELEMENT_SET_NO": 999, "REV_AT_EPOCH": 16087, "BSTAR": 4.454891e-05, "MEAN_MOTION_DOT": 5e-07, "MEAN_MOTION_DDOT": 0}, "tle": {"line1": "1 54234U 22150A   25352.24143331  .00000050  00000+0  44549-4 0  9990", "line2": "2 54234  98.7468 288.4812 0001987  27.2960 332.8320 14.19525773160873"}}, "geometry": {"type": "Point", "coordinates": [132.94702660747035, 69.13165477587991]}}, {"type": "Feature", "properties": {"norad_id": 54743, "name": "METEOSAT-12 (MTG-I1)", "group": "weather", "lat": 0.32612782061547413, "lon": 50.41072677054003, "alt_km": 35791.737241915194, "timestamp": "2025-12-18T21:31:50.623423+00:00", "meta": {"OBJECT_NAME": "METEOSAT-12 (MTG-I1)", "OBJECT_ID": "2022-170C", "EPOCH": "2025-12-18T01:18:34.195680", "MEAN_MOTION": 1.00270248, "ECCENTRICITY": 0.00014983, "INCLINATION": 0.6921, "RA_OF_ASC_NODE": 24.4989, "ARG_OF_PERICENTER": 239.2649, "MEAN_ANOMALY": 202.5057, "EPHEMERIS_TYPE": 0, "CLASSIFICATION_TYPE": "U", "NORAD_CAT_ID": 54743, "ELEMENT_SET_NO": 999, "REV_AT_EPOCH": 1116, "BSTAR": 0, "MEAN_MOTION_DOT": 1.7e-07, "MEAN_MOTION_DDOT": 0}, "tle": {"line1": "1 54743U 22170C   25352.05456245  .00000017  00000+0  00000+0 0  9999", "line2": "2 54743   0.6921  24.4989 0001498 239.2649 202.5057  1.00270248 11160"}}, "geometry": {"type": "Point", "coordinates": [50.41072677054003, 0.32612782061547413]}}, {"type": "Feature", "properties": {"norad_id": 55973, "name": "TIANMU-1 03", "group": "weather", "lat": -23.200041383783987, "lon": -27.52063376424707, "alt_km": 451.10956173362047, "timestamp": "2025-12-18T21:31:50.623441+00:00", "meta": {"OBJECT_NAME": "TIANMU-1 03", "OBJECT_ID": "2023-039A", "EPOCH": "2025-12-18T06:37:34.799808", "MEAN_MOTION": 15.41082724, "ECCENTRICITY": 0.00041846, "INCLINATION": 97.5101, "RA_OF_ASC_NODE": 155.0825, "ARG_OF_PERICENTER": 45.5781, "MEAN_ANOMALY": 314.5807, "EPHEMERIS_TYPE": 0, "CLASSIFICATION_TYPE": "U", "NORAD_CAT_ID": 55973, "ELEMENT_SET_NO": 999, "REV_AT_EPOCH": 15291, "BSTAR": 0.00033021678, "MEAN_MOTION_DOT": 0.00013577, "MEAN_MOTION_DDOT": 0}, "tle": {"line1": "1 55973U 23039A   25352.27609722  .00013577  00000+0  33022-3 0  9993", "line2": "2 55973  97.5101 155.0825 0004184  45.5781 314.5807 15.41082724152917"}}, "geometry": {"type": "Point", "coordinates": [-27.52063376424707, -23.200041383783987]}}, {"type": "Feature", "properties": {"norad_id": 55974, "name": "TIANMU-1 04", "group": "weather", "lat": -35.07388348120292, "lon": 160.21929949651312, "alt_km": 447.22524422237166, "timestamp": "2025-12-18T21:31:50.623457+00:00", "meta": {"OBJECT_NAME": "TIANMU-1 04", "OBJECT_ID": "2023-039B", "EPOCH": "2025-12-18T06:06:14.287392", "MEAN_MOTION": 15.41422595, "ECCENTRICITY": 0.00047922, "INCLINATION": 97.5033, "RA_OF_ASC_NODE": 154.2489, "ARG_OF_PERICENTER": 39.5643, "MEAN_ANOMALY": 320.5952, "EPHEMERIS_TYPE": 0, "CLASSIFICATION_TYPE": "U", "NORAD_CAT_ID": 55974, "ELEMENT_SET_NO": 999, "REV_AT_EPOCH": 15291, "BSTAR": 0.00033965865, "MEAN_MOTION_DOT": 0.00014128, "MEAN_MOTION_DDOT": 0}, "tle": {"line1": "1 55974U 23039B   25352.25433203  .00014128  00000+0  33966-3 0  9991", "line2": "2 55974  97.5033 154.2489 0004792  39.5643 320.5952 15.41422595152916"}}, "geometry": {"type": "Point", "coordinates": [160.21929949651312, -35.07388348120292]}}, {"type": "Feature", "properties": {"norad_id": 55975, "name": "TIANMU-1 05", "group": "weather", "lat": -11.871577732164456, "lon": 156.99077064074254, "alt_km": 446.65695342199706, "timestamp": "2025-12-18T21:31:50.623478+00:00", "meta": {"OBJECT_NAME": "TIANMU-1 05", "OBJECT_ID": "2023-039C", "EPOCH": "2025-12-18T05:59:55.006944", "MEAN_MOTION": 15.41038479, "ECCENTRICITY": 0.00042113, "INCLINATION": 97.508, "RA_OF_ASC_NODE": 154.7371, "ARG_OF_PERICENTER": 63.202, "MEAN_ANOMALY": 296.9657, "EPHEMERIS_TYPE": 0, "CLASSIFICATION_TYPE": "U", "NORAD_CAT_ID": 55975, "ELEMENT_SET_NO": 999, "REV_AT_EPOCH": 15289, "BSTAR": 0.00031254413, "MEAN_MOTION_DOT": 0.00012825, "MEAN_MOTION_DDOT": 0}, "tle": {"line1": "1 55975U 23039C   25352.24994221  .00012825  00000+0  31254-3 0  9993", "line2": "2 55975  97.5080 154.7371 0004211  63.2020 296.9657 15.41038479152892"}}, "geometry": {"type": "Point", "coordinates": [156.99077064074254, -11.871577732164456]}}, {"type": "Feature", "properties": {"norad_id": 55976, "name": "TIANMU-1 06", "group": "weather", "lat": -45.79934953901655, "lon": 163.66767727582817, "alt_km": 449.1415334509311, "timestamp": "2025-12-18T21:31:50.623520+00:00", "meta": {"OBJECT_NAME": "TIANMU-1 06", "OBJECT_ID": "2023-039D", "EPOCH": "2025-12-18T06:09:06.199200", "MEAN_MOTION": 15.41474213, "ECCENTRICITY": 0.00044861, "INCLINATION": 97.509, "RA_OF_ASC_NODE": 155.2132, "ARG_OF_PERICENTER": 57.6707, "MEAN_ANOMALY": 302.4973, "EPHEMERIS_TYPE": 0, "CLASSIFICATION_TYPE": "U", "NORAD_CAT_ID": 55976, "ELEMENT_SET_NO": 999, "REV_AT_EPOCH": 15291, "BSTAR": 0.00033611122, "MEAN_MOTION_DOT": 0.00014003, "MEAN_MOTION_DDOT": 0}, "tle": {"line1": "1 55976U 23039D   25352.25632175  .00014003  00000+0  33611-3 0  9991", "line2": "2 55976  97.5090 155.2132 0004486  57.6707 302.4973 15.41474213152915"}}, "geometry": {"type": "Point", "coordinates": [163.66767727582817, -45.79934953901655]}}, {"type": "Feature", "properties": {"norad_id": 56232, "name": "FENGYUN 3G", "group": "weather", "lat": -2.4412449305081028, "lon": -166.3822960955665, "alt_km": 412.2447051822528, "timestamp": "2025-12-18T21:31:50.623537+00:00", "meta": {"OBJECT_NAME": "FENGYUN 3G", "OBJECT_ID": "2023-055A", "EPOCH": "2025-12-18T04:34:07.819392", "MEAN_MOTION": 15.53965066, "ECCENTRICITY": 0.00093314, "INCLINATION": 49.9922, "RA_OF_ASC_NODE": 199.3209, "ARG_OF_PERICENTER": 173.3453, "MEAN_ANOMALY": 186.764, "EPHEMERIS_TYPE": 0, "CLASSIFICATION_TYPE": "U", "NORAD_CAT_ID": 56232, "ELEMENT_SET_NO": 999, "REV_AT_EPOCH": 15187, "BSTAR": 0.00041654661, "MEAN_MOTION_DOT": 0.00027113, "MEAN_MOTION_DDOT": 0}, "tle": {"line1": "1 56232U 23055A   25352.19036828  .00027113  00000+0  41655-3 0  9994", "line2": "2 56232  49.9922 199.3209 0009331 173.3453 186.7640 15.53965066151870"}}, "geometry": {"type": "Point", "coordinates": [-166.3822960955665, -2.4412449305081028]}}, {"type": "Feature", "properties": {"norad_id": 57166, "name": "METEOR-M2 3", "group": "weather", "lat": 63.44967846832632, "lon": -115.961936558251, "alt_km": 807.0094330559559, "timestamp": "2025-12-18T21:31:50.623553+00:00", "meta": {"OBJECT_NAME": "METEOR-M2 3", "OBJECT_ID": "2023-091A", "EPOCH": "2025-12-18T07:30:05.255712", "MEAN_MOTION": 14.24026706, "ECCENTRICITY": 0.00035883, "INCLINATION": 98.6372, "RA_OF_ASC_NODE": 45.7544, "ARG_OF_PERICENTER": 352.3854, "MEAN_ANOMALY": 7.727, "EPHEMERIS_TYPE": 0, "CLASSIFICATION_TYPE": "U", "NORAD_CAT_ID": 57166, "ELEMENT_SET_NO": 999, "REV_AT_EPOCH": 12877, "BSTAR": 2.3711854e-05, "MEAN_MOTION_DOT": 1.1e-07, "MEAN_MOTION_DDOT": 0}, "tle": {"line1": "1 57166U 23091A   25352.31256083  .00000011  00000+0  23712-4 0  9995", "line2": "2 57166  98.6372  45.7544 0003588 352.3854   7.7270 14.24026706128775"}}, "geometry": {"type": "Point", "coordinates": [-115.961936558251, 63.44967846832632]}}, {"type": "Feature", "properties": {"norad_id": 57399, "name": "TIANMU-1 07", "group": "weather", "lat": 81.47217534757904, "lon": -15.974807908394833, "alt_km": 470.40328010484063, "timestamp": "2025-12-18T21:31:50.623590+00:00", "meta": {"OBJECT_NAME": "TIANMU-1 07", "OBJECT_ID": "2023-101A", "EPOCH": "2025-12-18T07:00:51.185376", "MEAN_MOTION": 15.28150496, "ECCENTRICITY": 0.00054046, "INCLINATION": 97.2874, "RA_OF_ASC_NODE": 42.02, "ARG_OF_PERICENTER": 67.7514, "MEAN_ANOMALY": 292.4299, "EPHEMERIS_TYPE": 0, "CLASSIFICATION_TYPE": "U", "NORAD_CAT_ID": 57399, "ELEMENT_SET_NO": 999, "REV_AT_EPOCH": 13400, "BSTAR": 0.00023923131, "MEAN_MOTION_DOT": 6.494e-05, "MEAN_MOTION_DDOT": 0}, "tle": {"line1": "1 57399U 23101A   25352.29225909  .00006494  00000+0  23923-3 0  9999", "line2": "2 57399  97.2874  42.0200 0005404  67.7514 292.4299 15.28150496134009"}}, "geometry": {"type": "Point", "coordinates": [-15.974807908394833, 81.47217534757904]}}, {"type": "Feature", "properties": {"norad_id": 57400, "name": "TIANMU-1 08", "group": "weather", "lat": -82.07752917381511, "lon": 155.56497908632542, "alt_km": 493.44635414751156, "timestamp": "2025-12-18T21:31:50.623609+00:00", "meta": {"OBJECT_NAME": "TIANMU-1 08", "OBJECT_ID": "2023-101B", "EPOCH": "2025-12-18T06:13:20.728416", "MEAN_MOTION": 15.28132945, "ECCENTRICITY": 0.00073332, "INCLINATION": 97.2863, "RA_OF_ASC_NODE": 41.7849, "ARG_OF_PERICENTER": 68.3286, "MEAN_ANOMALY": 291.8734, "EPHEMERIS_TYPE": 0, "CLASSIFICATION_TYPE": "U", "NORAD_CAT_ID": 57400, "ELEMENT_SET_NO": 999, "REV_AT_EPOCH": 13399, "BSTAR": 0.00022968182, "MEAN_MOTION_DOT": 6.231e-05, "MEAN_MOTION_DDOT": 0}, "tle": {"line1": "1 57400U 23101B   25352.25926769  .00006231  00000+0  22968-3 0  9997", "line2": "2 57400  97.2863  41.7849 0007333  68.3286 291.8734 15.28132945133994"}}, "geometry": {"type": "Point", "coordinates": [155.56497908632542, -82.07752917381511]}}]}